[{"OBJECT_NAME":"STARLINK-4751","OBJECT_ID":"2022-114H","EPOCH":"2026-03-09T21:59:58.479648","MEAN_MOTION":15.08834432,"ECCENTRICITY":0.00012477,"INCLINATION":53.2165,"RA_OF_ASC_NODE":303.2516,"ARG_OF_PERICENTER":103.5502,"MEAN_ANOMALY":256.563,"EPHEMERIS_TYPE":0,"CLASSIFICATION_TYPE":"U","NORAD_CAT_ID":53825,"ELEMENT_SET_NO":999,"REV_AT_EPOCH":19286,"BSTAR":-0.00015999485,"MEAN_MOTION_DOT":-2.833e-5,"MEAN_MOTION_DDOT":0},{"OBJECT_NAME":"POSAT-2","OBJECT_ID":"2025-009DR","EPOCH":"2026-03-09T23:15:20.314368","MEAN_MOTION":15.10404492,"ECCENTRICITY":0.00077103,"INCLINATION":97.4906,"RA_OF_ASC_NODE":146.0095,"ARG_OF_PERICENTER":126.4226,"MEAN_ANOMALY":233.7715,"EPHEMERIS_TYPE":0,"CLASSIFICATION_TYPE":"U","NORAD_CAT_ID":63488,"ELEMENT_SET_NO":999,"REV_AT_EPOCH":5165,"BSTAR":0.0010942248,"MEAN_MOTION_DOT":0.00017957,"MEAN_MOTION_DDOT":0}]
